              M50 Cartesian                         J2K Cartesian  
    -----------------------------------       --------------------------------
     X    =       14169239.32                 X    =         4355976.56
     Y    =       -3721746.71  feet           Y    =        -1085885.59  meter
     Z    =      -16769068.07                 Z    =        -5090141.63
     XDOT =      12339.222542                 XDOT =        3680.224178
     YDOT =      21117.888135  feet/sec       YDOT =        6478.338864  meter/sec
     ZDOT =       5750.472485                 ZDOT =        1770.817188
 
              TDR Cartesian                         TDR Cartesian  
    -----------------------------------       --------------------------------
     X    =        -289971.18                 X    =          -88383.22
     Y    =      -14751432.22  feet           Y    =        -4496236.54  meter
     Z    =      -16677276.44                 Z    =        -5083233.86
     XDOT =      22329.888848                 XDOT =        6806.150121
     YDOT =      -7014.835697  feet/sec       YDOT =       -2138.121920  meter/sec
     ZDOT =       5827.806908                 ZDOT =        1776.315545
  
  
    The mean element set is posted at the UTC for which position is
    just north of the next ascending node relative to the above
    vector time
 
 
    TWO LINE MEAN ELEMENT SET
  
    ISS
    1 25544U 98067A   16098.68246153  .00016717  00000-0  10270-3 0  9174
    2 25544  51.6436  49.6928 0002549  31.9769 328.1538 15.54404101 34013
  
  
    Satellite: ISS
    Catalog Number: 25544
    Epoch time:      16098.68246153   =   yrday.fracday
    Element set:     917
    Inclination:       51.6436  deg
    RA of node:        49.6928  deg
    Eccentricity:     .0002549     
    Arg of perigee:    31.9769  deg
    Mean anomaly:     328.1538  deg
    Mean motion:   15.54404101  rev/day
    Decay rate:    1.67170E-04  rev/day^2
    Epoch rev:            3401
    Checksum:              321
 
 
    Coasting Arc #19 (Orbit 3416)
    ---------------------------------------
 
    Vector Time (GMT): 2016/099/16:04:00.000
    Vector Time (MET): N/A
    Weight (LBS)     : 917037.0
 
              M50 Cartesian                         M50 Keplerian  
    -----------------------------------       --------------------------------
     X    =       -5236297.94                 A    =         6780739.03  meter
     Y    =        -397494.57  meter          E    =           .0012099
     Z    =        4283478.12                 I    =           51.89852
     XDOT =      -2468.653779                 Wp   =           65.20266
     YDOT =      -6313.829928  meter/sec      RA   =           44.10424  deg
     ZDOT =      -3590.808293                 TA   =           61.35733
                                              MA   =           61.23571
                                              Ha   =            221.270  n.mi
                                              Hp   =            213.635
 
              M50 Cartesian                         J2K Cartesian  
    -----------------------------------       --------------------------------
     X    =      -17179455.17                 X    =        -5252271.49
     Y    =       -1304116.03  feet           Y    =         -456139.18  meter
     Z    =       14053405.89                 Z    =         4258002.35
     XDOT =      -8099.257805                 XDOT =       -2380.424617
     YDOT =     -20714.665119  feet/sec       YDOT =       -6340.943132  meter/sec
     ZDOT =     -11780.867104                 ZDOT =       -3602.585584
 
              TDR Cartesian                         TDR Cartesian  
    -----------------------------------       --------------------------------
     X    =       -5011186.32                 X    =        -1527409.59
     Y    =       16577695.78  feet           Y    =         5052881.67  meter
     Z    =       13942762.63                 Z    =         4249754.05
     XDOT =     -20752.668816                 XDOT =       -6325.413455
     YDOT =       3713.003044  feet/sec       YDOT =        1131.723328  meter/sec
     ZDOT =     -11830.845384                 ZDOT =       -3606.041673
  
  
    The mean element set is posted at the UTC for which position is
    just north of the next ascending node relative to the above
    vector time
 
 
    TWO LINE MEAN ELEMENT SET
  
    ISS
    1 25544U 98067A   16099.71111428  .00016717  00000-0  10270-3 0  9186
    2 25544  51.6445  44.5635 0002611  33.1754 326.9562 15.54445781 34179
  
  
    Satellite: ISS
    Catalog Number: 25544
    Epoch time:      16099.71111428   =   yrday.fracday
    Element set:     918
    Inclination:       51.6445  deg
    RA of node:        44.5635  deg
    Eccentricity:     .0002611     
    Arg of perigee:    33.1754  deg
    Mean anomaly:     326.9562  deg
    Mean motion:   15.54445781  rev/day
    Decay rate:    1.67170E-04  rev/day^2
    Epoch rev:            3417
    Checksum:              309
 
             </PRE>
           </TD>
        </TR>
    </TABLE>
    
    <table align="center" border="0" width="600" cellpadding="0" cellspacing="0">
      <tr>
        <td align="center" valign="top"><hr size="1" width="600" noshade="noshade" />
        <font face="Arial,helvetica" size="-2">Curator: <a href="/cgi-bin/comment.cgi?jsc-hsfwebma@mail.nasa.gov">Kim 
          Dismukes</a> | Responsible NASA Official: <a href="/cgi-bin/comment.cgi?jsc-hsfwebma@mail.nasa.gov">Amiko Kauderer</a> | Updated: 06/08/2009<br />
        <a href="http://www.nasa.gov/about/highlights/HP_Privacy.html">Privacy Policy and Important Notices</a></font></td>
      </tr>
    </table>
    </body>
    </html>
